*******************************************************************************
Ephemeris / WWW_USER Tue Mar 27 22:19:03 2018 Pasadena, USA      / Horizons    
*******************************************************************************
Target body name: 136108 Haumea (2003 EL61)       {source: JPL#87}
Center body name: Solar System Barycenter (0)     {source: DE431}
Center-site name: BODY CENTER
*******************************************************************************
Start time      : A.D. 2018-Feb-08 00:00:00.0000 TDB
Stop  time      : A.D. 2028-Feb-08 00:00:00.0000 TDB
Step-size       : 7200 minutes
*******************************************************************************
Center geodetic : 0.00000000,0.00000000,0.0000000 {E-lon(deg),Lat(deg),Alt(km)}
Center cylindric: 0.00000000,0.00000000,0.0000000 {E-lon(deg),Dxy(km),Dz(km)}
Center radii    : (undefined)                                                  
Small perturbers: Yes                             {source: SB431-N16}
Output units    : AU-D                                                         
Output type     : GEOMETRIC cartesian states
Output format   : 2 (position and velocity)
Reference frame : ICRF/J2000.0                                                 
Coordinate systm: Ecliptic and Mean Equinox of Reference Epoch                 
*******************************************************************************
Initial IAU76/J2000 heliocentric ecliptic osculating elements (au, days, deg.):
  EPOCH=  2456211.5 ! 2012-Oct-11.00 (TDB)         Residual RMS= .22485        
   EC= .1964862181056884   QR= 34.56394462436387   TP= 2500343.854969901       
   OM= 121.8524198449582   W=  240.6868081790604   IN= 28.19722402106353       
  Equivalent ICRF heliocentric equatorial cartesian coordinates (au, au/d):
   X=-4.266593492899759E+01  Y=-2.274754456372059E+01  Z= 1.581168261873085E+01
  VX= 9.353592994576606E-04 VY=-1.855008818200509E-03 VZ=-6.624115739028249E-04
Asteroid physical parameters (km, seconds, rotational period in hours):        
   GM= n.a.                RAD= n.a.               ROTPER= 3.9154              
   H= .200                 G= .150                 B-V= n.a.                   
                           ALBEDO= n.a.            STYP= n.a.                  
*******************************************************************************
JDTDB
   X     Y     Z
   VX    VY    VZ
*******************************************************************************
$$SOE
2458157.500000000 = A.D. 2018-Feb-08 00:00:00.0000 TDB 
  -4.065565183432579E+01 -1.834426974239374E+01  2.370698629725199E+01
   1.125769664944899E-03 -1.894708350345460E-03  2.535049205917095E-05
2458162.500000000 = A.D. 2018-Feb-13 00:00:00.0000 TDB 
  -4.065002181757635E+01 -1.835374275683363E+01  2.370711236830784E+01
   1.126237028797201E-03 -1.894497405322851E-03  2.507792727332457E-05
2458167.500000000 = A.D. 2018-Feb-18 00:00:00.0000 TDB 
  -4.064438946409810E+01 -1.836321471624409E+01  2.370723707649468E+01
   1.126704356470202E-03 -1.894286338573864E-03  2.480534446467873E-05
2458172.500000000 = A.D. 2018-Feb-23 00:00:00.0000 TDB 
  -4.063875477407198E+01 -1.837268562001648E+01  2.370736042172246E+01
   1.127171647944443E-03 -1.894075150089043E-03  2.453274364020039E-05
2458177.500000000 = A.D. 2018-Feb-28 00:00:00.0000 TDB 
  -4.063311774767902E+01 -1.838215546754208E+01  2.370748240390107E+01
   1.127638903200638E-03 -1.893863839858950E-03  2.426012480670150E-05
2458182.500000000 = A.D. 2018-Mar-05 00:00:00.0000 TDB 
  -4.062747838510038E+01 -1.839162425821214E+01  2.370760302294052E+01
   1.128106122218823E-03 -1.893652407873964E-03  2.398748797154656E-05
2458187.500000000 = A.D. 2018-Mar-10 00:00:00.0000 TDB 
  -4.062183668651727E+01 -1.840109199141787E+01  2.370772227875080E+01
   1.128573304979690E-03 -1.893440854124603E-03  2.371483314153855E-05
2458192.500000000 = A.D. 2018-Mar-15 00:00:00.0000 TDB 
  -4.061619265211104E+01 -1.841055866655043E+01  2.370784017124195E+01
   1.129040451463717E-03 -1.893229178601315E-03  2.344216032364545E-05
2458197.500000000 = A.D. 2018-Mar-20 00:00:00.0000 TDB 
  -4.061054628206312E+01 -1.842002428300091E+01  2.370795670032407E+01
   1.129507561651376E-03 -1.893017381294525E-03  2.316946952482847E-05
2458202.500000000 = A.D. 2018-Mar-25 00:00:00.0000 TDB 
  -4.060489757655505E+01 -1.842948884016038E+01  2.370807186590725E+01
   1.129974635523066E-03 -1.892805462194859E-03  2.289676075218617E-05
2458207.500000000 = A.D. 2018-Mar-30 00:00:00.0000 TDB 
  -4.059924653576846E+01 -1.843895233741986E+01  2.370818566790164E+01
   1.130441673059407E-03 -1.892593421292128E-03  2.262403401228823E-05
2458212.500000000 = A.D. 2018-Apr-04 00:00:00.0000 TDB 
  -4.059359315988505E+01 -1.844841477417028E+01  2.370829810621744E+01
   1.130908674240805E-03 -1.892381258576845E-03  2.235128931217574E-05
2458217.500000000 = A.D. 2018-Apr-09 00:00:00.0000 TDB 
  -4.058793744908667E+01 -1.845787614980258E+01  2.370840918076485E+01
   1.131375639047721E-03 -1.892168974039274E-03  2.207852665873002E-05
2458222.500000000 = A.D. 2018-Apr-14 00:00:00.0000 TDB 
  -4.058227940355523E+01 -1.846733646370762E+01  2.370851889145411E+01
   1.131842567460616E-03 -1.891956567669645E-03  2.180574605881866E-05
2458227.500000000 = A.D. 2018-Apr-19 00:00:00.0000 TDB 
  -4.057661902347274E+01 -1.847679571527621E+01  2.370862723819553E+01
   1.132309459459712E-03 -1.891744039458176E-03  2.153294751953237E-05
2458232.500000000 = A.D. 2018-Apr-24 00:00:00.0000 TDB 
  -4.057095630902134E+01 -1.848625390389912E+01  2.370873422089942E+01
   1.132776315025996E-03 -1.891531389394990E-03  2.126013104715899E-05
2458237.500000000 = A.D. 2018-Apr-29 00:00:00.0000 TDB 
  -4.056529126038324E+01 -1.849571102896706E+01  2.370883983947613E+01
   1.133243134139780E-03 -1.891318617470232E-03  2.098729664866226E-05
2458242.500000000 = A.D. 2018-May-04 00:00:00.0000 TDB 
  -4.055962387774074E+01 -1.850516708987070E+01  2.370894409383603E+01
   1.133709916781577E-03 -1.891105723673999E-03  2.071444433077833E-05
2458247.500000000 = A.D. 2018-May-09 00:00:00.0000 TDB 
  -4.055395416127624E+01 -1.851462208600066E+01  2.370904698388958E+01
   1.134176662931907E-03 -1.890892707996357E-03  2.044157410021885E-05
2458252.500000000 = A.D. 2018-May-14 00:00:00.0000 TDB 
  -4.054828211117226E+01 -1.852407601674751E+01  2.370914850954720E+01
   1.134643372571297E-03 -1.890679570427335E-03  2.016868596366957E-05
2458257.500000000 = A.D. 2018-May-19 00:00:00.0000 TDB 
  -4.054260772761141E+01 -1.853352888150177E+01  2.370924867071938E+01
   1.135110045680202E-03 -1.890466310956749E-03  1.989577992781044E-05
2458262.500000000 = A.D. 2018-May-24 00:00:00.0000 TDB 
  -4.053693101077639E+01 -1.854298067965390E+01  2.370934746731665E+01
   1.135576682239385E-03 -1.890252929575091E-03  1.962285599922720E-05
2458267.500000000 = A.D. 2018-May-29 00:00:00.0000 TDB 
  -4.053125196084997E+01 -1.855243141059432E+01  2.370944489924956E+01
   1.136043282229328E-03 -1.890039426272148E-03  1.934991418454529E-05
2458272.500000000 = A.D. 2018-Jun-03 00:00:00.0000 TDB 
  -4.052557057801506E+01 -1.856188107371340E+01  2.370954096642870E+01
   1.136509845630615E-03 -1.889825801037894E-03  1.907695449034557E-05
2458277.500000000 = A.D. 2018-Jun-08 00:00:00.0000 TDB 
  -4.051988686245467E+01 -1.857132966840146E+01  2.370963566876468E+01
   1.136976372423836E-03 -1.889612053862278E-03  1.880397692318181E-05
2458282.500000000 = A.D. 2018-Jun-13 00:00:00.0000 TDB 
  -4.051420081435187E+01 -1.858077719404877E+01  2.370972900616815E+01
   1.137442862589690E-03 -1.889398184735177E-03  1.853098148947302E-05
2458287.500000000 = A.D. 2018-Jun-18 00:00:00.0000 TDB 
  -4.050851243388986E+01 -1.859022365004554E+01  2.370982097854981E+01
   1.137909316108551E-03 -1.889184193646622E-03  1.825796819599649E-05
2458292.500000000 = A.D. 2018-Jun-23 00:00:00.0000 TDB 
  -4.050282172125190E+01 -1.859966903578195E+01  2.370991158582035E+01
   1.138375732961106E-03 -1.888970080586459E-03  1.798493704915675E-05
2458297.500000000 = A.D. 2018-Jun-28 00:00:00.0000 TDB 
  -4.049712867662139E+01 -1.860911335064811E+01  2.371000082789055E+01
   1.138842113127956E-03 -1.888755845544564E-03  1.771188805544293E-05
2458302.500000000 = A.D. 2018-Jul-03 00:00:00.0000 TDB 
  -4.049143330018180E+01 -1.861855659403408E+01  2.371008870467117E+01
   1.139308456589706E-03 -1.888541488510788E-03  1.743882122132265E-05
2458307.500000000 = A.D. 2018-Jul-08 00:00:00.0000 TDB 
  -4.048573559211670E+01 -1.862799876532988E+01  2.371017521607304E+01
   1.139774763326971E-03 -1.888327009474967E-03  1.716573655324285E-05
2458312.500000000 = A.D. 2018-Jul-13 00:00:00.0000 TDB 
  -4.048003555260976E+01 -1.863743986392547E+01  2.371026036200699E+01
   1.140241033320334E-03 -1.888112408426977E-03  1.689263405768294E-05
2458317.500000000 = A.D. 2018-Jul-18 00:00:00.0000 TDB 
  -4.047433318184477E+01 -1.864687988921077E+01  2.371034414238391E+01
   1.140707266550528E-03 -1.887897685356393E-03  1.661951374087904E-05
2458322.500000000 = A.D. 2018-Jul-23 00:00:00.0000 TDB 
  -4.046862848000556E+01 -1.865631884057564E+01  2.371042655711472E+01
   1.141173462998154E-03 -1.887682840253047E-03  1.634637560926465E-05
2458327.500000000 = A.D. 2018-Jul-28 00:00:00.0000 TDB 
  -4.046292144727612E+01 -1.866575671740990E+01  2.371050760611033E+01
   1.141639622643863E-03 -1.887467873106655E-03  1.607321966917989E-05
2458332.500000000 = A.D. 2018-Aug-02 00:00:00.0000 TDB 
  -4.045721208384049E+01 -1.867519351910329E+01  2.371058728928173E+01
   1.142105745468313E-03 -1.887252783906913E-03  1.580004592694144E-05
2458337.500000000 = A.D. 2018-Aug-07 00:00:00.0000 TDB 
  -4.045150038988283E+01 -1.868462924504553E+01  2.371066560653993E+01
   1.142571831452004E-03 -1.887037572643406E-03  1.552685438896866E-05
